SAUDISAT 1C (SO-50)     
1 27607U 02058C   26162.55839360  .00000916  00000+0  12536-3 0  9998
2 27607  64.5506 146.4007 0075403 263.5157  95.7360 14.83034770263626
SAUDISAT 2              
1 28371U 04025F   26162.60250800  .00000237  00000+0  64135-4 0  9994
2 28371  98.5507 162.4401 0023822 316.1423  43.7882 14.56680728164934
SAUDISAT 3              
1 31118U 07012B   26162.68250321  .00000217  00000+0  43329-4 0  9992
2 31118  98.1454 113.0795 0013390 242.8379 117.1462 14.71422482 26931
PISAT                   
1 41784U 16059B   26162.55851389  .00000816  00000+0  14650-3 0  9999
2 41784  97.8179 163.2532 0027957 221.2985 138.6107 14.68974237518919
FLYING LAPTOP           
1 42831U 17042G   26162.85285105  .00002843  00000+0  22570-3 0  9998
2 42831  97.4661 318.5922 0019332 139.0275 221.2406 15.01111056485654
SALSAT                  
1 46495U 20068K   26162.58556220  .00006923  00000+0  24314-3 0  9990
2 46495  97.8849 165.3093 0008526 331.4069  28.6701 15.29719030314503
