OBJECT_NAME,OBJECT_ID,EPOCH,MEAN_MOTION,ECCENTRICITY,INCLINATION,RA_OF_ASC_NODE,ARG_OF_PERICENTER,MEAN_ANOMALY,EPHEMERIS_TYPE,CLASSIFICATION_TYPE,NORAD_CAT_ID,ELEMENT_SET_NO,REV_AT_EPOCH,BSTAR,MEAN_MOTION_DOT,MEAN_MOTION_DDOT
SAUDISAT 1C (SO-50),2002-058C,2026-06-11T13:24:05.207040,14.83034770,.0075403,64.5506,146.4007,263.5157,95.7360,0,U,27607,999,26362,.12536E-3,.916E-5,0
SAUDISAT 2,2004-025F,2026-06-11T14:27:36.691200,14.56680728,.0023822,98.5507,162.4401,316.1423,43.7882,0,U,28371,999,16493,.64135E-4,.237E-5,0
SAUDISAT 3,2007-012B,2026-06-11T16:22:48.277344,14.71422482,.001339,98.1454,113.0795,242.8379,117.1462,0,U,31118,999,2693,.43329E-4,.217E-5,0
PISAT,2016-059B,2026-06-11T13:24:15.600096,14.68974237,.0027957,97.8179,163.2532,221.2985,138.6107,0,U,41784,999,51891,.1465E-3,.816E-5,0
FLYING LAPTOP,2017-042G,2026-06-11T20:28:06.330720,15.01111056,.0019332,97.4661,318.5922,139.0275,221.2406,0,U,42831,999,48565,.2257E-3,.2843E-4,0
SALSAT,2020-068K,2026-06-11T14:03:12.574080,15.29719030,.0008526,97.8849,165.3093,331.4069,28.6701,0,U,46495,999,31450,.24314E-3,.6923E-4,0
